QIANFAN-25              
1 61558U 24185G   25200.52359876  .00000256  00000+0  14816-3 0  9994
2 61558  88.9808  94.7559 0009488  54.3979 305.8086 14.05743828 48973
QIANFAN-26              
1 61559U 24185H   25200.62485796  .00000189  00000+0  17608-3 0  9994
2 61559  88.9818  95.5358 0007981  89.2669 270.9411 13.77715647 48554
QIANFAN-27              
1 61560U 24185J   25200.63527919  .00000331  00000+0  12977-3 0  9994
2 61560  88.9807  94.0897 0010462  56.7720 303.4475 14.27111951 49323
QIANFAN-28              
1 61561U 24185K   25200.54027542  .00000542  00000+0  21391-3 0  9996
2 61561  88.9825  94.0928 0009461  58.2417 301.9698 14.27663072 49311
QIANFAN-29              
1 61562U 24185L   25200.53563458  .00000124  00000+0  17271-3 0  9995
2 61562  88.9814  96.4278 0011861 107.9476 252.2969 13.50951304 48050
QIANFAN-30              
1 61563U 24185M   25200.54793166  .00000080  00000+0  10656-3 0  9999
2 61563  88.9819  95.9002 0009663  94.5311 265.6944 13.49923711 48343
QIANFAN-31              
1 61564U 24185N   25200.63736690  .00000140  00000+0  17645-3 0  9991
2 61564  88.9801  95.9247 0009335  92.5193 267.7030 13.57901324 48331
QIANFAN-32              
1 61565U 24185P   25200.52353787  .00000095  00000+0  12887-3 0  9994
2 61565  88.9862  95.9925 0010986 116.4851 243.7428 13.50679524 48302
